*******************************************************************************
Ephemeris / WWW_USER Mon Mar 24 11:03:53 2025 Pasadena, USA      / Horizons    
*******************************************************************************
Target body name: (2018 VX1)                      {source: JPL#7}
Center body name: Earth (399)                     {source: DE441}
Center-site name: Mauna Kea
*******************************************************************************
Start time      : A.D. 2018-Aug-09 05:04:00.0000 UT      
Stop  time      : A.D. 2018-Aug-09 15:50:00.0000 UT      
Step-size       : 1 minutes
*******************************************************************************
Target pole/equ : undefined
Target radii    : undefined                                                    
Center geodetic : 204.5278, 19.8260847, 4.21024   {E-lon(deg),Lat(deg),Alt(km)}
Center cylindric: 204.5278, 6006.35451, 2151.0229 {E-lon(deg),Dxy(km),Dz(km)}
Center pole/equ : ITRF93                          {East-longitude positive}
Center radii    : 6378.137, 6378.137, 6356.752 km {Equator_a, b, pole_c}       
Target primary  : Sun
Vis. interferer : MOON (R_eq= 1737.400) km        {source: DE441}
Rel. light bend : Sun                             {source: DE441}
Rel. lght bnd GM: 1.3271E+11 km^3/s^2                                          
Small-body perts: Yes                             {source: SB441-N16}
Atmos refraction: NO (AIRLESS)
RA format       : HMS
Time format     : CAL 
Calendar mode   : Mixed Julian/Gregorian
RTS-only print  : NO       
EOP file        : eop.250321.p250617                                           
EOP coverage    : DATA-BASED 1962-JAN-20 TO 2025-MAR-21. PREDICTS-> 2025-JUN-16
Units conversion: 1 au= 149597870.700 km, c= 299792.458 km/s, 1 day= 86400.0 s 
Table cut-offs 1: Elevation (-90.0deg=NO ),Airmass (>38.000=NO), Daylight (YES)
Table cut-offs 2: Solar elongation (  0.0,180.0=NO ),Local Hour Angle( 0.0=NO )
Table cut-offs 3: RA/DEC angular rate (     0.0=NO )                           
*******************************************************************************
Initial IAU76/J2000 heliocentric ecliptic osculating elements (au, days, deg.):
  EPOCH=  2458429.5 ! 2018-Nov-07.00 (TDB)         Residual RMS= .34243        
   EC= .3094465550301519   QR= .9449639043218054   TP= 2458464.0659233886      
   OM= 45.67874041641947   W=  38.97310343924259   IN= 3.356915226222919       
  Equivalent ICRF heliocentric cartesian coordinates (au, au/d):
   X= 7.224620352366717E-01  Y= 6.383229877646874E-01  Z= 2.747435985069854E-01
  VX=-1.546092850205216E-02 VY= 1.016746642579675E-02 VZ= 5.632057443641291E-03
Asteroid physical parameters (km, seconds, rotational period in hours):        
   GM= n.a.                RAD= n.a.               ROTPER= n.a.                
   H= 27.5                 G= .150                 B-V= n.a.                   
                           ALBEDO= n.a.            STYP= n.a.                  
*******************************************************************************
 Date__(UT)__HR:MN     R.A._________(ICRF)_________DEC
******************************************************
$$SOE
 2018-Aug-09 15:19 Nm  00 38 19.706329 -05 24 26.79849
 2018-Aug-09 15:20 Nm  00 38 19.756434 -05 24 26.71327
 2018-Aug-09 15:21 Nm  00 38 19.806546 -05 24 26.62802
 2018-Aug-09 15:22 Nm  00 38 19.856667 -05 24 26.54275
 2018-Aug-09 15:23 Nm  00 38 19.906794 -05 24 26.45746
 2018-Aug-09 15:24 Nm  00 38 19.956930 -05 24 26.37215
 2018-Aug-09 15:25 Nm  00 38 20.007073 -05 24 26.28682
 2018-Aug-09 15:26 Nm  00 38 20.057224 -05 24 26.20146
 2018-Aug-09 15:27 Nm  00 38 20.107383 -05 24 26.11609
 2018-Aug-09 15:28 Nm  00 38 20.157550 -05 24 26.03069
 2018-Aug-09 15:29 Nm  00 38 20.207726 -05 24 25.94528
 2018-Aug-09 15:30 Nm  00 38 20.257909 -05 24 25.85984
 2018-Aug-09 15:31 Nm  00 38 20.308101 -05 24 25.77438
 2018-Aug-09 15:32 Nm  00 38 20.358302 -05 24 25.68890
 2018-Aug-09 15:33 Nm  00 38 20.408510 -05 24 25.60340
 2018-Aug-09 15:34 Nm  00 38 20.458728 -05 24 25.51788
 2018-Aug-09 15:35 Nm  00 38 20.508954 -05 24 25.43234
 2018-Aug-09 15:36 Nm  00 38 20.559188 -05 24 25.34678
 2018-Aug-09 15:37 Nm  00 38 20.609432 -05 24 25.26120
 2018-Aug-09 15:38 Cm  00 38 20.659685 -05 24 25.17560
 2018-Aug-09 15:39 Cm  00 38 20.709946 -05 24 25.08998
 2018-Aug-09 15:40 Cm  00 38 20.760216 -05 24 25.00433
 2018-Aug-09 15:41 Cm  00 38 20.810496 -05 24 24.91867
 2018-Aug-09 15:42 Cm  00 38 20.860785 -05 24 24.83299
 2018-Aug-09 15:43 Cm  00 38 20.911083 -05 24 24.74728
 2018-Aug-09 15:44 Cm  00 38 20.961391 -05 24 24.66156
 2018-Aug-09 15:45 Cm  00 38 21.011708 -05 24 24.57582
 2018-Aug-09 15:46 Cm  00 38 21.062034 -05 24 24.49006
 2018-Aug-09 15:47 Cm  00 38 21.112370 -05 24 24.40427
 2018-Aug-09 15:48 Cm  00 38 21.162716 -05 24 24.31847
 2018-Aug-09 15:49 Cm  00 38 21.213072 -05 24 24.23265
 2018-Aug-09 15:50 Cm  00 38 21.263437 -05 24 24.14681
